start=new Date('2023-05-20T00:00:00.000Z').valueOf();
sats=[{"ARG_OF_PERICENTER":"89.4721","CENTER_NAME":"EARTH","TLE_LINE1":"1 53161U 22083AF  23139.23511873  .00000060  00000-0  21834-4 0  9997","EPHEMERIS_TYPE":"0","GP_ID":"232161126","SEMIMAJOR_AXIS":"6917.878","LAUNCH_DATE":"2022-07-17","EPOCH":"2023-05-19T05:38:34.258272","RA_OF_ASC_NODE":"87.5622","PERIOD":"95.438","MEAN_MOTION":"15.08840840","COUNTRY_CODE":"US","MEAN_MOTION_DDOT":"0.0000000000000","MEAN_ANOMALY":"270.6416","APOAPSIS":"540.622","REV_AT_EPOCH":"4655","ECCENTRICITY":"0.00012710","RCS_SIZE":"LARGE","REF_FRAME":"TEME","TLE_LINE2":"2 53161  53.2173  87.5622 0001271  89.4721 270.6416 15.08840840 46555","FILE":"3912278","SITE":"AFETR","CLASSIFICATION_TYPE":"U","OBJECT_NAME":"STARLINK-4055","OBJECT_ID":"2022-083AF","PERIAPSIS":"538.864","TIME_SYSTEM":"UTC","MEAN_MOTION_DOT":"0.00000060","NORAD_CAT_ID":"53161","BSTAR":"0.00002183400000","MEAN_ELEMENT_THEORY":"SGP4","DECAY_DATE":null,"OBJECT_TYPE":"PAYLOAD","ELEMENT_SET_NO":"999","INCLINATION":"53.2173"},{"COUNTRY_CODE":"US","MEAN_MOTION_DDOT":"0.0000000000000","MEAN_MOTION":"15.08841017","RA_OF_ASC_NODE":"87.4997","PERIOD":"95.437","LAUNCH_DATE":"2022-07-17","EPOCH":"2023-05-19T06:01:08.814144","SEMIMAJOR_AXIS":"6917.877","TLE_LINE1":"1 53162U 22083AG  23139.25079646  .00000663  00000-0  59710-4 0  9990","GP_ID":"232162377","EPHEMERIS_TYPE":"0","CENTER_NAME":"EARTH","ARG_OF_PERICENTER":"93.8349","FILE":"3912278","TLE_LINE2":"2 53162  53.2168  87.4997 0001173  93.8349 266.2777 15.08841017 46558","REF_FRAME":"TEME","RCS_SIZE":"LARGE","ECCENTRICITY":"0.00011730","APOAPSIS":"540.554","MEAN_ANOMALY":"266.2777","REV_AT_EPOCH":"4655","MEAN_MOTION_DOT":"0.00000663","PERIAPSIS":"538.931","TIME_SYSTEM":"UTC","OBJECT_NAME":"STARLINK-4114","OBJECT_ID":"2022-083AG","CLASSIFICATION_TYPE":"U","SITE":"AFETR","INCLINATION":"53.2168","ELEMENT_SET_NO":"999","DECAY_DATE":null,"OBJECT_TYPE":"PAYLOAD","MEAN_ELEMENT_THEORY":"SGP4","BSTAR":"0.00005971000000","NORAD_CAT_ID":"53162"},{"MEAN_MOTION":"15.08838711","COUNTRY_CODE":"US","MEAN_MOTION_DDOT":"0.0000000000000","RA_OF_ASC_NODE":"87.5932","PERIOD":"95.438","EPOCH":"2023-05-19T05:29:21.086592","LAUNCH_DATE":"2022-07-17","SEMIMAJOR_AXIS":"6917.884","CENTER_NAME":"EARTH","ARG_OF_PERICENTER":"86.3721","TLE_LINE1":"1 53163U 22083AH  23139.22871628 -.00000273  00000-0  91738-6 0  9994","EPHEMERIS_TYPE":"0","GP_ID":"232162100","FILE":"3912278","TLE_LINE2":"2 53163  53.2172  87.5932 0001111  86.3721 273.7398 15.08838711 46556","RCS_SIZE":"LARGE","REF_FRAME":"TEME","MEAN_ANOMALY":"273.7398","APOAPSIS":"540.518","REV_AT_EPOCH":"4655","ECCENTRICITY":"0.00011110","PERIAPSIS":"538.981","TIME_SYSTEM":"UTC","MEAN_MOTION_DOT":"-0.00000273","OBJECT_ID":"2022-083AH","OBJECT_NAME":"STARLINK-4104","CLASSIFICATION_TYPE":"U","SITE":"AFETR","INCLINATION":"53.2172","ELEMENT_SET_NO":"999","BSTAR":"0.00000091738000","MEAN_ELEMENT_THEORY":"SGP4","DECAY_DATE":null,"OBJECT_TYPE":"PAYLOAD","NORAD_CAT_ID":"53163"},{"EPOCH":"2023-05-19T05:43:52.086720","LAUNCH_DATE":"2022-07-17","SEMIMAJOR_AXIS":"6917.877","EPHEMERIS_TYPE":"0","GP_ID":"232160876","TLE_LINE1":"1 53164U 22083AJ  23139.23879730  .00000970  00000-0  79029-4 0  9998","ARG_OF_PERICENTER":"97.5717","CENTER_NAME":"EARTH","MEAN_MOTION_DDOT":"0.0000000000000","COUNTRY_CODE":"US","MEAN_MOTION":"15.08841174","PERIOD":"95.437","RA_OF_ASC_NODE":"87.5467","REF_FRAME":"TEME","RCS_SIZE":"LARGE","ECCENTRICITY":"0.00010880","REV_AT_EPOCH":"4655","MEAN_ANOMALY":"262.5399","APOAPSIS":"540.494","FILE":"3912278","TLE_LINE2":"2 53164  53.2167  87.5467 0001088  97.5717 262.5399 15.08841174 46550","CLASSIFICATION_TYPE":"U","SITE":"AFETR","MEAN_MOTION_DOT":"0.00000970","TIME_SYSTEM":"UTC","PERIAPSIS":"538.989","OBJECT_NAME":"STARLINK-4116","OBJECT_ID":"2022-083AJ","MEAN_ELEMENT_THEORY":"SGP4","DECAY_DATE":null,"OBJECT_TYPE":"PAYLOAD","BSTAR":"0.00007902900000","NORAD_CAT_ID":"53164","INCLINATION":"53.2167","ELEMENT_SET_NO":"999"},{"REV_AT_EPOCH":"4653","APOAPSIS":"540.562","MEAN_ANOMALY":"266.3983","ECCENTRICITY":"0.00011990","RCS_SIZE":"LARGE","REF_FRAME":"TEME","TLE_LINE2":"2 53165  53.2179  88.2057 0001199  93.7146 266.3983 15.08844246 46536","FILE":"3912278","ARG_OF_PERICENTER":"93.7146","CENTER_NAME":"EARTH","GP_ID":"232161626","EPHEMERIS_TYPE":"0","TLE_LINE1":"1 53165U 22083AK  23139.09159603  .00000080  00000-0  23106-4 0  9990","LAUNCH_DATE":"2022-07-17","SEMIMAJOR_AXIS":"6917.867","EPOCH":"2023-05-19T02:11:53.896992","PERIOD":"95.437","RA_OF_ASC_NODE":"88.2057","MEAN_MOTION":"15.08844246","MEAN_MOTION_DDOT":"0.0000000000000","COUNTRY_CODE":"US","NORAD_CAT_ID":"53165","BSTAR":"0.00002310600000","DECAY_DATE":null,"OBJECT_TYPE":"PAYLOAD","MEAN_ELEMENT_THEORY":"SGP4","ELEMENT_SET_NO":"999","INCLINATION":"53.2179","SITE":"AFETR","CLASSIFICATION_TYPE":"U","OBJECT_NAME":"STARLINK-4090","OBJECT_ID":"2022-083AK","TIME_SYSTEM":"UTC","PERIAPSIS":"538.903","MEAN_MOTION_DOT":"0.00000080"},{"ELEMENT_SET_NO":"999","INCLINATION":"53.2173","NORAD_CAT_ID":"53166","BSTAR":"0.00002250000000","OBJECT_TYPE":"PAYLOAD","DECAY_DATE":null,"MEAN_ELEMENT_THEORY":"SGP4","OBJECT_ID":"2022-083AL","OBJECT_NAME":"STARLINK-4110","PERIAPSIS":"538.968","TIME_SYSTEM":"UTC","MEAN_MOTION_DOT":"0.00000070","SITE":"AFETR","CLASSIFICATION_TYPE":"U","TLE_LINE2":"2 53166  53.2173  87.5768 0001137  87.3126 272.7996 15.08837037 46558","FILE":"3912278","MEAN_ANOMALY":"272.7996","APOAPSIS":"540.541","REV_AT_EPOCH":"4655","ECCENTRICITY":"0.00011370","RCS_SIZE":"LARGE","REF_FRAME":"TEME","RA_OF_ASC_NODE":"87.5768","PERIOD":"95.438","MEAN_MOTION":"15.08837037","COUNTRY_CODE":"US","MEAN_MOTION_DDOT":"0.0000000000000","CENTER_NAME":"EARTH","ARG_OF_PERICENTER":"87.3126","TLE_LINE1":"1 53166U 22083AL  23139.23144054  .00000070  00000-0  22500-4 0  9997","GP_ID":"232161878","EPHEMERIS_TYPE":"0","EPOCH":"2023-05-19T05:33:16.462656","LAUNCH_DATE":"2022-07-17","SEMIMAJOR_AXIS":"6917.889"},{"ECCENTRICITY":"0.00009770","REV_AT_EPOCH":"4673","MEAN_ANOMALY":"278.2921","APOAPSIS":"540.414","REF_FRAME":"TEME","RCS_SIZE":"LARGE","TLE_LINE2":"2 53167  53.2176  73.1182 0000977  81.8182 278.2921 15.08842524 46731","FILE":"3912278","GP_ID":"232162600","EPHEMERIS_TYPE":"0","TLE_LINE1":"1 53167U 22083AM  23139.10953549 -.00000185  00000-0  64323-5 0  9999","CENTER_NAME":"EARTH","ARG_OF_PERICENTER":"81.8182","LAUNCH_DATE":"2022-07-17","SEMIMAJOR_AXIS":"6917.873","EPOCH":"2023-05-19T02:37:43.866336","PERIOD":"95.437","RA_OF_ASC_NODE":"73.1182","MEAN_MOTION_DDOT":"0.0000000000000","COUNTRY_CODE":"US","MEAN_MOTION":"15.08842524","NORAD_CAT_ID":"53167","OBJECT_TYPE":"PAYLOAD","DECAY_DATE":null,"MEAN_ELEMENT_THEORY":"SGP4","BSTAR":"0.00000643230000","ELEMENT_SET_NO":"999","INCLINATION":"53.2176","SITE":"AFETR","CLASSIFICATION_TYPE":"U","OBJECT_ID":"2022-083AM","OBJECT_NAME":"STARLINK-3683","MEAN_MOTION_DOT":"-0.00000185","TIME_SYSTEM":"UTC","PERIAPSIS":"539.062"},{"PERIOD":"95.438","RA_OF_ASC_NODE":"87.5952","MEAN_MOTION":"15.08837510","MEAN_MOTION_DDOT":"0.0000000000000","COUNTRY_CODE":"US","ARG_OF_PERICENTER":"88.2757","CENTER_NAME":"EARTH","GP_ID":"232161376","EPHEMERIS_TYPE":"0","TLE_LINE1":"1 53168U 22083AN  23139.22775967  .00000517  00000-0  50589-4 0  9995","LAUNCH_DATE":"2022-07-17","EPOCH":"2023-05-19T05:27:58.435488","SEMIMAJOR_AXIS":"6917.888","TLE_LINE2":"2 53168  53.2168  87.5952 0001111  88.2757 271.8362 15.08837510 46554","FILE":"3912278","REV_AT_EPOCH":"4655","MEAN_ANOMALY":"271.8362","APOAPSIS":"540.522","ECCENTRICITY":"0.00011110","RCS_SIZE":"LARGE","REF_FRAME":"TEME","OBJECT_NAME":"STARLINK-4105","OBJECT_ID":"2022-083AN","TIME_SYSTEM":"UTC","PERIAPSIS":"538.984","MEAN_MOTION_DOT":"0.00000517","SITE":"AFETR","CLASSIFICATION_TYPE":"U","ELEMENT_SET_NO":"999","INCLINATION":"53.2168","NORAD_CAT_ID":"53168","BSTAR":"0.00005058900000","DECAY_DATE":null,"OBJECT_TYPE":"PAYLOAD","MEAN_ELEMENT_THEORY":"SGP4"},{"CLASSIFICATION_TYPE":"U","SITE":"AFETR","MEAN_MOTION_DOT":"-0.00000489","TIME_SYSTEM":"UTC","PERIAPSIS":"538.894","OBJECT_NAME":"STARLINK-4117","OBJECT_ID":"2022-083AP","MEAN_ELEMENT_THEORY":"SGP4","DECAY_DATE":null,"OBJECT_TYPE":"PAYLOAD","BSTAR":"-0.00001261000000","NORAD_CAT_ID":"53169","INCLINATION":"53.2179","ELEMENT_SET_NO":"999","LAUNCH_DATE":"2022-07-17","SEMIMAJOR_AXIS":"6917.855","EPOCH":"2023-05-19T02:05:58.704864","EPHEMERIS_TYPE":"0","GP_ID":"232161127","TLE_LINE1":"1 53169U 22083AP  23139.08748501 -.00000489  00000-0 -12610-4 0  9997","ARG_OF_PERICENTER":"93.0013","CENTER_NAME":"EARTH","MEAN_MOTION_DDOT":"0.0000000000000","COUNTRY_CODE":"US","MEAN_MOTION":"15.08848153","PERIOD":"95.437","RA_OF_ASC_NODE":"73.4850","REF_FRAME":"TEME","RCS_SIZE":"LARGE","ECCENTRICITY":"0.00011950","REV_AT_EPOCH":"4672","MEAN_ANOMALY":"267.1116","APOAPSIS":"540.547","FILE":"3912278","TLE_LINE2":"2 53169  53.2179  73.4850 0001195  93.0013 267.1116 15.08848153 46728"},{"PERIOD":"95.437","RA_OF_ASC_NODE":"82.4204","MEAN_MOTION":"15.08841605","MEAN_MOTION_DDOT":"0.0000000000000","COUNTRY_CODE":"US","CENTER_NAME":"EARTH","ARG_OF_PERICENTER":"96.1548","EPHEMERIS_TYPE":"0","GP_ID":"232162378","TLE_LINE1":"1 53170U 22083AQ  23139.25580928  .00000508  00000-0  49995-4 0  9991","SEMIMAJOR_AXIS":"6917.875","LAUNCH_DATE":"2022-07-17","EPOCH":"2023-05-19T06:08:21.921792","TLE_LINE2":"2 53170  53.2167  82.4204 0001206  96.1548 263.9582 15.08841605 46625","FILE":"3912278","REV_AT_EPOCH":"4662","MEAN_ANOMALY":"263.9582","APOAPSIS":"540.575","ECCENTRICITY":"0.00012060","RCS_SIZE":"LARGE","REF_FRAME":"TEME","OBJECT_NAME":"STARLINK-4095","OBJECT_ID":"2022-083AQ","TIME_SYSTEM":"UTC","PERIAPSIS":"538.906","MEAN_MOTION_DOT":"0.00000508","SITE":"AFETR","CLASSIFICATION_TYPE":"U","ELEMENT_SET_NO":"999","INCLINATION":"53.2167","NORAD_CAT_ID":"53170","BSTAR":"0.00004999500000","DECAY_DATE":null,"MEAN_ELEMENT_THEORY":"SGP4","OBJECT_TYPE":"PAYLOAD"}];
